{"type": "FeatureCollection", "features": [ {"type": "Feature", "properties": {"norad_id": 66534, "name": "STARLINK-35976", "group": "last-30-days", "lat": 26.36647607724617, "lon": -138.19805278158108, "alt_km": 404.24053830174034, "timestamp": "2025-12-09T07:41:31.972543+00:00", "meta": {"OBJECT_NAME": "STARLINK-35976", "OBJECT_ID": "2025-265U", "EPOCH": "2025-12-08T22:00:03.000096", "MEAN_MOTION": 15.54981732, "ECCENTRICITY": 0.00016678, "INCLINATION": 43.0006, "RA_OF_ASC_NODE": 76.3119, "ARG_OF_PERICENTER": 282.0343, "MEAN_ANOMALY": 115.3722, "EPHEMERIS_TYPE": 0, "CLASSIFICATION_TYPE": "U", "NORAD_CAT_ID": 66534, "ELEMENT_SET_NO": 999, "REV_AT_EPOCH": 438, "BSTAR": -0.033225102, "MEAN_MOTION_DOT": -0.02040477, "MEAN_MOTION_DDOT": 0}, "tle": {"line1": "1 66534U 25265U   25342.91670139 -.02040477  00000+0 -33225-1 0  9997", "line2": "2 66534  43.0006  76.3119 0001667 282.0343 115.3722 15.54981732  4389"}}, "geometry": {"type": "Point", "coordinates": [-138.19805278158108, 26.36647607724617]}}, {"type": "Feature", "properties": {"norad_id": 66535, "name": "STARLINK-35514", "group": "last-30-days", "lat": 25.24829519483834, "lon": -136.4705493503663, "alt_km": 404.2550453809981, "timestamp": "2025-12-09T07:41:31.972553+00:00", "meta": {"OBJECT_NAME": "STARLINK-35514", "OBJECT_ID": "2025-265V", "EPOCH": "2025-12-08T22:00:03.000096", "MEAN_MOTION": 15.54985487, "ECCENTRICITY": 0.00015608, "INCLINATION": 43.0006, "RA_OF_ASC_NODE": 76.3071, "ARG_OF_PERICENTER": 276.8754, "MEAN_ANOMALY": 122.4471, "EPHEMERIS_TYPE": 0, "CLASSIFICATION_TYPE": "U", "NORAD_CAT_ID": 66535, "ELEMENT_SET_NO": 999, "REV_AT_EPOCH": 438, "BSTAR": -0.033293771, "MEAN_MOTION_DOT": -0.02044427, "MEAN_MOTION_DDOT": 0}, "tle": {"line1": "1 66535U 25265V   25342.91670139 -.02044427  00000+0 -33294-1 0  9993", "line2": "2 66535  43.0006  76.3071 0001560 276.8754 122.4471 15.54985487  4387"}}, "geometry": {"type": "Point", "coordinates": [-136.4705493503663, 25.24829519483834]}}, {"type": "Feature", "properties": {"norad_id": 66536, "name": "STARLINK-35640", "group": "last-30-days", "lat": 24.111041595150155, "lon": -134.7762617064764, "alt_km": 404.57672852499945, "timestamp": "2025-12-09T07:41:31.972563+00:00", "meta": {"OBJECT_NAME": "STARLINK-35640", "OBJECT_ID": "2025-265W", "EPOCH": "2025-12-08T22:00:03.000096", "MEAN_MOTION": 15.54984597, "ECCENTRICITY": 0.00017102, "INCLINATION": 43.0004, "RA_OF_ASC_NODE": 76.3023, "ARG_OF_PERICENTER": 282.462, "MEAN_ANOMALY": 118.775, "EPHEMERIS_TYPE": 0, "CLASSIFICATION_TYPE": "U", "NORAD_CAT_ID": 66536, "ELEMENT_SET_NO": 999, "REV_AT_EPOCH": 436, "BSTAR": -0.033235784, "MEAN_MOTION_DOT": -0.02041284, "MEAN_MOTION_DDOT": 0}, "tle": {"line1": "1 66536U 25265W   25342.91670139 -.02041284  00000+0 -33236-1 0  9998", "line2": "2 66536  43.0004  76.3023 0001710 282.4620 118.7750 15.54984597  4362"}}, "geometry": {"type": "Point", "coordinates": [-134.7762617064764, 24.111041595150155]}}, {"type": "Feature", "properties": {"norad_id": 66537, "name": "STARLINK-35582", "group": "last-30-days", "lat": 22.95439990625337, "lon": -133.1107872760271, "alt_km": 404.6276115564624, "timestamp": "2025-12-09T07:41:31.972573+00:00", "meta": {"OBJECT_NAME": "STARLINK-35582", "OBJECT_ID": "2025-265X", "EPOCH": "2025-12-08T22:00:03.000096", "MEAN_MOTION": 15.54988359, "ECCENTRICITY": 0.00016044, "INCLINATION": 43.0003, "RA_OF_ASC_NODE": 76.2974, "ARG_OF_PERICENTER": 279.4974, "MEAN_ANOMALY": 123.6549, "EPHEMERIS_TYPE": 0, "CLASSIFICATION_TYPE": "U", "NORAD_CAT_ID": 66537, "ELEMENT_SET_NO": 999, "REV_AT_EPOCH": 438, "BSTAR": -0.033299551, "MEAN_MOTION_DOT": -0.02044968, "MEAN_MOTION_DDOT": 0}, "tle": {"line1": "1 66537U 25265X   25342.91670139 -.02044968  00000+0 -33300-1 0  9993", "line2": "2 66537  43.0003  76.2974 0001604 279.4974 123.6549 15.54988359  4389"}}, "geometry": {"type": "Point", "coordinates": [-133.1107872760271, 22.95439990625337]}}, {"type": "Feature", "properties": {"norad_id": 66538, "name": "STARLINK-35577", "group": "last-30-days", "lat": 21.781851986323066, "lon": -131.4756909504937, "alt_km": 404.91929474573317, "timestamp": "2025-12-09T07:41:31.972583+00:00", "meta": {"OBJECT_NAME": "STARLINK-35577", "OBJECT_ID": "2025-265Y", "EPOCH": "2025-12-08T22:00:03.000096", "MEAN_MOTION": 15.5498418, "ECCENTRICITY": 0.00017597, "INCLINATION": 43.0004, "RA_OF_ASC_NODE": 76.2922, "ARG_OF_PERICENTER": 282.6841, "MEAN_ANOMALY": 122.3868, "EPHEMERIS_TYPE": 0, "CLASSIFICATION_TYPE": "U", "NORAD_CAT_ID": 66538, "ELEMENT_SET_NO": 999, "REV_AT_EPOCH": 438, "BSTAR": -0.033207921, "MEAN_MOTION_DOT": -0.0203976, "MEAN_MOTION_DDOT": 0}, "tle": {"line1": "1 66538U 25265Y   25342.91670139 -.02039760  00000+0 -33208-1 0  9995", "line2": "2 66538  43.0004  76.2922 0001759 282.6841 122.3868 15.54984180  4382"}}, "geometry": {"type": "Point", "coordinates": [-131.4756909504937, 21.781851986323066]}}, {"type": "Feature", "properties": {"norad_id": 66539, "name": "STARLINK-35697", "group": "last-30-days", "lat": 20.592235628900045, "lon": -129.86565341586146, "alt_km": 405.05740394158966, "timestamp": "2025-12-09T07:41:31.972596+00:00", "meta": {"OBJECT_NAME": "STARLINK-35697", "OBJECT_ID": "2025-265Z", "EPOCH": "2025-12-08T22:00:03.000096", "MEAN_MOTION": 15.54983672, "ECCENTRICITY": 0.00017016, "INCLINATION": 43.0005, "RA_OF_ASC_NODE": 76.2872, "ARG_OF_PERICENTER": 282.8792, "MEAN_ANOMALY": 124.1109, "EPHEMERIS_TYPE": 0, "CLASSIFICATION_TYPE": "U", "NORAD_CAT_ID": 66539, "ELEMENT_SET_NO": 999, "REV_AT_EPOCH": 438, "BSTAR": -0.033233959, "MEAN_MOTION_DOT": -0.02041116, "MEAN_MOTION_DDOT": 0}, "tle": {"line1": "1 66539U 25265Z   25342.91670139 -.02041116  00000+0 -33234-1 0  9993", "line2": "2 66539  43.0005  76.2872 0001701 282.8792 124.1109 15.54983672  4385"}}, "geometry": {"type": "Point", "coordinates": [-129.86565341586146, 20.592235628900045]}}, {"type": "Feature", "properties": {"norad_id": 66540, "name": "STARLINK-35818", "group": "last-30-days", "lat": 19.388520340877793, "lon": -128.28114163993206, "alt_km": 405.2477759353751, "timestamp": "2025-12-09T07:41:31.972608+00:00", "meta": {"OBJECT_NAME": "STARLINK-35818", "OBJECT_ID": "2025-265AA", "EPOCH": "2025-12-08T22:00:03.000096", "MEAN_MOTION": 15.54983945, "ECCENTRICITY": 0.00017203, "INCLINATION": 43.0006, "RA_OF_ASC_NODE": 76.2827, "ARG_OF_PERICENTER": 284.0556, "MEAN_ANOMALY": 124.8509, "EPHEMERIS_TYPE": 0, "CLASSIFICATION_TYPE": "U", "NORAD_CAT_ID": 66540, "ELEMENT_SET_NO": 999, "REV_AT_EPOCH": 438, "BSTAR": -0.033234442, "MEAN_MOTION_DOT": -0.02041173, "MEAN_MOTION_DDOT": 0}, "tle": {"line1": "1 66540U 25265AA  25342.91670139 -.02041173  00000+0 -33234-1 0  9998", "line2": "2 66540  43.0006  76.2827 0001720 284.0556 124.8509 15.54983945  4385"}}, "geometry": {"type": "Point", "coordinates": [-128.28114163993206, 19.388520340877793]}}, {"type": "Feature", "properties": {"norad_id": 66541, "name": "STARLINK-35796", "group": "last-30-days", "lat": 18.171252014955773, "lon": -126.72050774365997, "alt_km": 405.39938523091587, "timestamp": "2025-12-09T07:41:31.972619+00:00", "meta": {"OBJECT_NAME": "STARLINK-35796", "OBJECT_ID": "2025-265AB", "EPOCH": "2025-12-08T22:00:03.000096", "MEAN_MOTION": 15.54984367, "ECCENTRICITY": 0.00017068, "INCLINATION": 43.0005, "RA_OF_ASC_NODE": 76.278, "ARG_OF_PERICENTER": 283.92, "MEAN_ANOMALY": 126.9032, "EPHEMERIS_TYPE": 0, "CLASSIFICATION_TYPE": "U", "NORAD_CAT_ID": 66541, "ELEMENT_SET_NO": 999, "REV_AT_EPOCH": 438, "BSTAR": -0.033247415, "MEAN_MOTION_DOT": -0.02041904, "MEAN_MOTION_DDOT": 0}, "tle": {"line1": "1 66541U 25265AB  25342.91670139 -.02041904  00000+0 -33247-1 0  9995", "line2": "2 66541  43.0005  76.2780 0001706 283.9200 126.9032 15.54984367  4384"}}, "geometry": {"type": "Point", "coordinates": [-126.72050774365997, 18.171252014955773]}}, {"type": "Feature", "properties": {"norad_id": 66542, "name": "STARLINK-35833", "group": "last-30-days", "lat": 16.941451136068455, "lon": -125.18150814584824, "alt_km": 405.6025562605664, "timestamp": "2025-12-09T07:41:31.972631+00:00", "meta": {"OBJECT_NAME": "STARLINK-35833", "OBJECT_ID": "2025-265AC", "EPOCH": "2025-12-08T22:00:03.000096", "MEAN_MOTION": 15.54984182, "ECCENTRICITY": 0.00017193, "INCLINATION": 43.0004, "RA_OF_ASC_NODE": 76.2734, "ARG_OF_PERICENTER": 285.8472, "MEAN_ANOMALY": 126.8926, "EPHEMERIS_TYPE": 0, "CLASSIFICATION_TYPE": "U", "NORAD_CAT_ID": 66542, "ELEMENT_SET_NO": 999, "REV_AT_EPOCH": 438, "BSTAR": -0.033243072, "MEAN_MOTION_DOT": -0.02041662, "MEAN_MOTION_DDOT": 0}, "tle": {"line1": "1 66542U 25265AC  25342.91670139 -.02041662  00000+0 -33243-1 0  9993", "line2": "2 66542  43.0004  76.2734 0001719 285.8472 126.8926 15.54984182  4385"}}, "geometry": {"type": "Point", "coordinates": [-125.18150814584824, 16.941451136068455]}}, {"type": "Feature", "properties": {"norad_id": 66543, "name": "STARLINK-35315", "group": "last-30-days", "lat": 15.700342404195128, "lon": -123.66337396521428, "alt_km": 405.7345445007986, "timestamp": "2025-12-09T07:41:31.972666+00:00", "meta": {"OBJECT_NAME": "STARLINK-35315", "OBJECT_ID": "2025-265AD", "EPOCH": "2025-12-08T22:00:03.000096", "MEAN_MOTION": 15.54984908, "ECCENTRICITY": 0.00017286, "INCLINATION": 43.0005, "RA_OF_ASC_NODE": 76.2681, "ARG_OF_PERICENTER": 284.2383, "MEAN_ANOMALY": 130.4185, "EPHEMERIS_TYPE": 0, "CLASSIFICATION_TYPE": "U", "NORAD_CAT_ID": 66543, "ELEMENT_SET_NO": 999, "REV_AT_EPOCH": 427, "BSTAR": -0.033254583, "MEAN_MOTION_DOT": -0.02042348, "MEAN_MOTION_DDOT": 0}, "tle": {"line1": "1 66543U 25265AD  25342.91670139 -.02042348  00000+0 -33255-1 0  9999", "line2": "2 66543  43.0005  76.2681 0001728 284.2383 130.4185 15.54984908  4274"}}, "geometry": {"type": "Point", "coordinates": [-123.66337396521428, 15.700342404195128]}}]}